[{"OBJECT_NAME":"STARLINK-3587","OBJECT_ID":"2022-022AS","EPOCH":"2026-03-09T22:48:17.867520","MEAN_MOTION":15.08840626,"ECCENTRICITY":0.00014025,"INCLINATION":53.2202,"RA_OF_ASC_NODE":357.9501,"ARG_OF_PERICENTER":108.976,"MEAN_ANOMALY":251.1384,"EPHEMERIS_TYPE":0,"CLASSIFICATION_TYPE":"U","NORAD_CAT_ID":51892,"ELEMENT_SET_NO":999,"REV_AT_EPOCH":22328,"BSTAR":-3.0248478e-5,"MEAN_MOTION_DOT":-7.69e-6,"MEAN_MOTION_DDOT":0},{"OBJECT_NAME":"DELTA 2 R\/B(1)","OBJECT_ID":"1998-061C","EPOCH":"2026-03-09T09:46:57.052992","MEAN_MOTION":14.43796455,"ECCENTRICITY":0.03053372,"INCLINATION":31.4328,"RA_OF_ASC_NODE":172.9373,"ARG_OF_PERICENTER":338.6516,"MEAN_ANOMALY":20.1611,"EPHEMERIS_TYPE":0,"CLASSIFICATION_TYPE":"U","NORAD_CAT_ID":25510,"ELEMENT_SET_NO":999,"REV_AT_EPOCH":43720,"BSTAR":0.00018891877,"MEAN_MOTION_DOT":1.226e-5,"MEAN_MOTION_DDOT":0}]
